spkid,full_name,pdes,name,prefix,neo,pha,sats,H,G,M1,M2,K1,K2,PC,diameter,extent,albedo,rot_per,GM,BV,UB,IR,spec_B,spec_T,H_sigma,diameter_sigma,orbit_id,epoch,epoch_mjd,epoch_cal,equinox,e,a,q,i,om,w,ma,ad,n,tp,tp_cal,per,per_y,moid,moid_ld,moid_jup,t_jup,sigma_e,sigma_a,sigma_q,sigma_i,sigma_om,sigma_w,sigma_ma,sigma_ad,sigma_n,sigma_tp,sigma_per,class,producer,data_arc,first_obs,last_obs,n_obs_used,n_del_obs_used,n_dop_obs_used,condition_code,rms
3297371,       (2005 UW6),2005 UW6,,,Y,Y,0,21.8,,,,,,,,,,,,,,,,,,,16,2460200.5,60200,2023-09-13.0,J2000,0.739,2.048,0.535,0.87,334.23,181.26,17.32,3.56,0.3363,2460148.99,2023-07-23.4,1.07E+03,2.93,0.015,5.85,1.44,3.39,1.70E-04,4.70E-03,9.00E-04,9.30E-03,1.40E+00,1.40E+00,5.70E+00,8.30E-03,1.20E-03,1.70E+01,3.70E+00,APO,Otto Matic,21,29-10-2005,19-11-2005,47,,,7,0.4459
3297378,       (2005 UT64),2005 UT64,,,Y,Y,0,20.26,,,,,,,,,,,,,,,,,,,21,2460200.5,60200,2023-09-13.0,J2000,0.521,1.822,0.873,10.51,161.56,327.45,61.95,2.77,0.4009,2460045.97,2023-04-11.4,898,2.46,0.0465,18.1,2.34,3.85,7.80E-08,4.70E-08,1.40E-07,2.00E-05,1.50E-04,1.40E-04,7.70E-05,7.20E-08,1.60E-08,1.90E-04,3.50E-05,APO,Otto Matic,6141,31-10-2005,24-08-2022,65,,,0,0.5574
3299722,       (2005 VO5),2005 VO5,,,Y,Y,0,19.84,,,,,,,,,,,,,,,,,,,27,2460200.5,60200,2023-09-13.0,J2000,0.5613,2.009,0.881,14.24,100.97,242.04,114.86,3.14,0.3462,2459868.75,2022-10-16.2,1.04E+03,2.85,0.039,15.2,2.41,3.59,2.00E-07,7.60E-09,4.00E-07,2.90E-05,7.90E-05,8.40E-05,9.10E-06,1.20E-08,2.00E-09,2.60E-05,5.90E-06,APO,Otto Matic,6252,09-11-2005,22-12-2022,93,,,0,0.51268
3299947,       (2005 VR7),2005 VR7,,,Y,Y,0,21.18,,,,,,,,,,,,,,,,,,,21,2460200.5,60200,2023-09-13.0,J2000,0.2872,1.083,0.772,25.25,254.86,101.09,353.15,1.39,0.8746,2460208.33,2023-09-20.8,412,1.13,0.0293,11.4,4.1,5.6,1.60E-07,8.60E-09,1.80E-07,3.50E-05,3.20E-05,3.40E-05,6.40E-05,1.10E-08,1.00E-08,7.30E-05,4.90E-06,APO,Otto Matic,6354,07-11-2005,01-04-2023,43,,,0,0.52861
3303213,       (2005 WD),2005 WD,,,Y,Y,0,21.94,,,,,,,,,,2.927,,,,,,,,,28,2460200.5,60200,2023-09-13.0,J2000,0.5609,2.307,1.013,26.17,227.65,161.02,38.1,3.6,0.2812,2460065.02,2023-04-30.5,1.28E+03,3.5,0.0407,15.8,1.94,3.25,3.50E-08,6.40E-09,7.90E-08,2.20E-05,3.30E-06,4.00E-05,7.70E-06,1.00E-08,1.20E-09,2.80E-05,5.30E-06,APO,Otto Matic,5112,19-11-2005,18-11-2019,177,0,1,0,0.37832
3303218,       (2005 WA1),2005 WA1,,,Y,Y,0,21.72,,,,,,,,,,,,,,,,,,,29,2460200.5,60200,2023-09-13.0,J2000,0.5833,2.009,0.837,10.91,246.85,242.12,75.35,3.18,0.3461,2459982.78,2023-02-07.2,1.04E+03,2.85,0.0239,9.29,2.04,3.58,5.80E-08,8.20E-09,1.10E-07,8.30E-06,1.00E-05,2.10E-05,1.60E-05,1.30E-08,2.10E-09,4.60E-05,6.40E-06,APO,Otto Matic,6396,12-11-2005,18-05-2023,133,1,3,0,0.47354
3305002,       (2005 WY55),2005 WY55,,,Y,Y,0,20.7,,,,,,,,,,,,,,,,,,,33,2460200.5,60200,2023-09-13.0,J2000,0.7192,2.491,0.7,7.27,247.99,286.42,171.68,4.28,0.2506,2459515.57,2021-10-28.0,1.44E+03,3.93,0.00324,1.26,0.948,3.04,2.20E-07,5.70E-08,5.30E-07,3.10E-05,5.40E-05,7.50E-05,5.80E-05,9.70E-08,8.50E-09,2.10E-04,4.90E-05,APO,Otto Matic,1451,26-11-2005,16-11-2009,135,,,0,0.61629
3307228,       (2005 XT77),2005 XT77,,,Y,Y,0,21.41,,,,,,,,,,,,,,,,,,,32,2460200.5,60200,2023-09-13.0,J2000,0.2665,0.841,0.617,17.22,84.79,150,224.52,1.07,1.278,2460306.52,2023-12-28.0,282,0.771,0.0263,10.2,3.94,6.93,2.90E-07,1.20E-08,2.50E-07,3.30E-05,1.20E-05,5.00E-05,1.20E-04,1.50E-08,2.70E-08,9.40E-05,5.90E-06,ATE,Otto Matic,6204,06-12-2005,01-12-2022,122,,,0,0.4033
3309093,       (2005 YU3),2005 YU3,,,Y,Y,0,19.8,,,,,,,,,,,,,,,,,,,21,2460200.5,60200,2023-09-13.0,J2000,0.8414,2.552,0.405,3.02,2.49,341.51,135.84,4.7,0.2418,2459638.69,2022-02-28.1,1.49E+03,4.08,0.0427,16.6,0.727,2.79,7.70E-07,7.80E-07,1.80E-06,1.30E-05,1.30E-03,1.40E-03,3.60E-04,1.40E-06,1.10E-07,1.20E-03,6.80E-04,APO,Otto Matic,2971,22-12-2005,09-02-2014,82,,,0,0.53342
3309286,       (2005 YS8),2005 YS8,,,Y,Y,0,20,,,,,,,,,,,,,,,,,,,JPL 10,2453737.5,53737,2006-01-02.0,J2000,0.5293,1.697,0.799,17.37,56.47,298.21,32.12,2.59,0.4459,2453665.48,2005-10-21.9,807,2.21,0.00717,2.79,2.99,3.99,5.70E-04,2.30E-03,1.00E-04,7.40E-03,1.30E-02,3.90E-02,7.70E-02,3.50E-03,9.00E-04,2.80E-02,1.60E+00,APO,Otto Matic,28,24-12-2005,21-01-2006,32,,,8,0.60285
3311865,       (2006 AR3),2006 AR3,,,Y,Y,0,20.6,,,,,,,,,,,,,,,,,,,26,2460200.5,60200,2023-09-13.0,J2000,0.6364,2.47,0.898,4.71,12.32,40.8,217.38,4.04,0.254,2460762.09,2025-03-27.5,1.42E+03,3.88,0.00242,0.94,1.4,3.17,3.90E-07,4.10E-07,1.10E-06,4.60E-05,5.60E-04,4.60E-04,4.70E-04,6.80E-07,6.40E-08,2.00E-03,3.60E-04,APO,Otto Matic,1507,06-01-2006,21-02-2010,128,,,1,0.58718
3311964,       (2006 AM4),2006 AM4,,,Y,Y,0,21.8,,,,,,,,,,0.0847,,,,,,,,,50,2460200.5,60200,2023-09-13.0,J2000,0.6492,0.9822,0.345,4.15,123.34,139.63,331.89,1.62,1.013,2460228.26,2023-10-10.7,356,0.973,0.011,4.27,3.47,5.96,8.80E-08,1.60E-07,1.10E-07,1.60E-05,3.20E-05,3.50E-05,2.10E-04,2.70E-07,2.50E-07,2.20E-04,8.90E-05,ATE,Otto Matic,737,08-01-2006,15-01-2008,183,5,0,1,0.49023
3312034,       (2006 AL8),2006 AL8,,,Y,Y,0,18.4,,,,,,,,,,,,,,,,,,,31,2460200.5,60200,2023-09-13.0,J2000,0.8879,3.334,0.374,35.86,311.94,65.92,332.29,6.29,0.1619,2460371.65,2024-03-02.1,2.22E+03,6.09,0.0494,19.2,2.48,2.16,1.10E-07,4.40E-08,3.60E-07,5.10E-05,9.00E-06,3.90E-05,1.40E-05,8.40E-08,3.20E-09,9.10E-05,4.40E-05,APO,Otto Matic,2262,08-01-2006,19-03-2012,204,1,1,0,0.42301
3313976,       (2006 BX39),2006 BX39,,,Y,Y,0,21.4,,,,,,,,,,,,,,,,,,,JPL 21,2453768.5,53768,2006-02-02.0,J2000,0.6375,1.903,0.69,14.35,140.43,79.12,339.81,3.12,0.3753,2453822.29,2006-03-27.7,959,2.63,0.00878,3.42,2.06,3.64,7.80E-04,3.60E-03,1.80E-04,1.40E-02,1.20E-03,6.40E-03,6.60E-02,5.90E-03,1.10E-03,2.40E-02,2.70E+00,APO,Otto Matic,15,26-01-2006,10-02-2006,123,,,8,0.51284
3314045,       (2006 BE55),2006 BE55,,,Y,Y,0,21.98,,,,,,,,,,,,,,,,,,,48,2460200.5,60200,2023-09-13.0,J2000,0.4245,1.195,0.688,2.4,125.26,126.41,103.71,1.7,0.7541,2460062.96,2023-04-28.4,477,1.31,0.0236,9.2,3.34,5.22,1.20E-07,2.20E-08,1.60E-07,5.80E-06,9.20E-05,9.10E-05,4.20E-06,3.10E-08,2.10E-08,2.20E-06,1.30E-05,APO,Giorgini,6243,26-01-2006,01-03-2023,213,2,2,0,0.38056
3315647,       (2006 CF),2006 CF,,,Y,Y,0,20.3,,,,,,,,,,,,,,,,,,,33,2460200.5,60200,2023-09-13.0,J2000,0.6795,2.294,0.735,4.66,111.83,268.86,61.38,3.85,0.2837,2459984.12,2023-02-08.6,1.27E+03,3.47,0.0245,9.54,1.63,3.24,4.70E-08,1.10E-07,1.40E-07,2.20E-05,5.80E-05,6.20E-05,2.90E-05,1.80E-07,2.00E-08,8.60E-05,8.70E-05,APO,Otto Matic,4920,06-02-1999,27-07-2012,196,2,1,0,0.36092
3321493,       (2006 CU),2006 CU,,,Y,Y,0,22,,,,,,,,,,,,,,,,,,,22,2460200.5,60200,2023-09-13.0,J2000,0.4539,1.51,0.825,3.8,148.73,253.22,215.61,2.2,0.5311,2460472.4,2024-06-10.8,678,1.86,0.00869,3.38,3.23,4.4,4.80E-07,4.10E-09,7.20E-07,2.50E-05,1.10E-04,1.00E-04,3.30E-05,5.90E-09,2.10E-09,6.10E-05,2.70E-06,APO,Otto Matic,4754,03-02-2006,09-02-2019,117,,,0,0.53999
3321628,       (2006 CM10),2006 CM10,,,Y,Y,0,21.7,,,,,,,,,,,,,,,,,,,JPL 18,2453783.5,53783,2006-02-17.0,J2000,0.701,2.133,0.638,18.31,143.32,92.08,342.95,3.63,0.3164,2453837.39,2006-04-11.8,1.14E+03,3.11,0.0191,7.42,1.89,3.31,1.20E-03,7.20E-03,3.20E-04,3.10E-02,4.10E-03,3.30E-03,9.60E-02,1.20E-02,1.60E-03,3.30E-02,5.70E+00,APO,Otto Matic,18,07-02-2006,25-02-2006,68,,,8,0.53893
3321667,       (2006 CT10),2006 CT10,,,Y,Y,0,21.2,,,,,,,,,,,,,,,,,,,18,2460200.5,60200,2023-09-13.0,J2000,0.6624,2.889,0.975,12.89,111.2,30.52,209.45,4.8,0.2008,2460950.37,2025-10-01.8,1.79E+03,4.91,0.0352,13.7,0.503,2.89,8.50E-08,2.40E-07,2.30E-07,3.20E-05,2.90E-04,2.60E-04,1.60E-04,4.00E-07,2.50E-08,8.80E-04,2.30E-04,APO,Otto Matic,1943,07-02-2006,04-06-2011,53,,,1,0.57983
3324630,       (2006 DU62),2006 DU62,,,Y,Y,0,17.99,,,,,,,,,,,,,,,,,,,44,2460200.5,60200,2023-09-13.0,J2000,0.7384,1.64,0.429,16.45,322.1,71.87,174.06,2.85,0.4694,2459829.66,2022-09-07.1,767,2.1,0.00604,2.35,2.84,3.9,7.60E-08,5.70E-09,1.30E-07,1.70E-05,1.30E-05,1.80E-05,1.80E-05,9.90E-09,2.40E-09,3.60E-05,4.00E-06,APO,Otto Matic,5986,25-02-2006,17-07-2022,245,,,0,0.48312
3329371,       (2006 GC1),2006 GC1,,,Y,Y,0,20.5,,,,,,,,,,,,,,,,,,,22,2460200.5,60200,2023-09-13.0,J2000,0.8172,1.706,0.312,5.98,196.11,232.89,325.29,3.1,0.4422,2460278.99,2023-11-30.4,814,2.23,0.00921,3.58,2.26,3.71,1.20E-07,3.10E-08,2.20E-07,1.00E-05,8.30E-05,8.20E-05,1.80E-05,5.70E-08,1.20E-08,4.20E-05,2.20E-05,APO,Otto Matic,5592,02-04-2006,24-07-2021,92,,,0,0.64061
3330049,       (2006 HC2),2006 HC2,,,Y,Y,0,21.8,,,,,,,,,,,,,,,,,,,20,2460200.5,60200,2023-09-13.0,J2000,0.4871,1.71,0.877,3.75,198.18,66.66,260.04,2.54,0.4409,2460427.21,2024-04-26.7,816,2.24,0.0156,6.07,2.56,4.04,6.30E-08,2.60E-08,9.90E-08,2.70E-05,7.80E-05,8.40E-05,7.40E-05,3.90E-08,1.00E-08,1.70E-04,1.90E-05,APO,Otto Matic,3432,19-04-2006,11-09-2015,78,,,0,0.8856
3330050,       (2006 HD2),2006 HD2,,,Y,Y,0,20.9,,,,,,,,,,,,,,,,,,,18,2460200.5,60200,2023-09-13.0,J2000,0.6011,2.031,0.81,4.02,30.21,95.85,31.68,3.25,0.3405,2460107.46,2023-06-11.9,1.06E+03,2.89,0.028,10.9,1.86,3.56,2.00E-07,2.80E-07,5.00E-07,5.70E-05,1.40E-04,2.00E-04,3.70E-04,4.50E-07,7.10E-08,1.10E-03,2.20E-04,APO,Otto Matic,1099,20-10-2005,23-10-2008,69,,,1,0.64058
3330155,       (2006 HV5),2006 HV5,,,Y,Y,0,19.41,,,,,,,0.307,,0.246,,,,,,,,,0.08,61,2460200.5,60200,2023-09-13.0,J2000,0.3156,0.8424,0.577,32.02,35.94,317.52,68.57,1.11,1.275,2460146.71,2023-07-21.2,282,0.773,0.0166,6.46,4.34,6.82,8.60E-08,1.20E-09,7.30E-08,3.10E-06,8.00E-07,5.30E-06,1.70E-05,1.60E-09,2.70E-09,1.30E-05,6.00E-07,ATE,Giorgini,6219,19-04-2006,29-04-2023,393,7,2,0,0.31532
3330680,       (2006 HQ30),2006 HQ30,,,Y,Y,0,21.2,,,,,,,,,,,,,,,,,,,40,2460200.5,60200,2023-09-13.0,J2000,0.6063,2.598,1.023,12.01,85.48,180.09,37.59,4.17,0.2354,2460040.83,2023-04-06.3,1.53E+03,4.19,0.00605,2.35,0.936,3.1,5.20E-05,2.20E-04,5.00E-05,5.80E-04,3.30E-04,1.10E-03,2.00E-01,3.50E-04,2.90E-05,8.50E-01,1.90E-01,AMO,Otto Matic,59,20-04-2006,18-06-2006,213,,,5,0.44328
